NORAD_CAT_ID,OBJECT_NAME,OBJECT_TYPE,EPOCH,MEAN_MOTION,ECCENTRICITY,INCLINATION,RA_OF_ASC_NODE,ARG_OF_PERICENTER,MEAN_ANOMALY,BSTAR,MEAN_MOTION_DOT,MEAN_MOTION_DDOT,TLE_LINE0,TLE_LINE1,TLE_LINE2,SEMIMAJOR_AXIS,PERIOD,APOGEE,PERIGEE,DECAYED
51114.0,STARLINK-3375,PAYLOAD,2023-08-31 01:00:33,15.08839378,0.0001458,53.217,106.5559,92.9982,267.1177,1.348e-06,-2.67e-06,0.0,0 STARLINK-3375,1 51114U 22005L   23243.04205053 -.00000267  00000-0  13480-5 0  9991,2 51114  53.2170 106.5559 0001458  92.9982 267.1177 15.08839378 90855,6917.882,95.438,540.756,538.739,0.0
51114.0,STARLINK-3375,PAYLOAD,2023-09-01 07:12:52,15.08839927,0.0001529,53.2174,100.9062,81.7661,278.3505,2.3048e-05,7.9e-07,0.0,0 STARLINK-3375,1 51114U 22005L   23244.30061170  .00000079  00000-0  23048-4 0  9991,2 51114  53.2174 100.9062 0001529  81.7661 278.3505 15.08839927 91046,6917.881,95.438,540.803,538.688,0.0
51114.0,STARLINK-3375,PAYLOAD,2023-09-01 21:31:21,15.08840088,0.0001787,53.2177,98.2301,74.7989,285.3201,5.6089e-05,6.05e-06,0.0,0 STARLINK-3375,1 51114U 22005L   23244.89677216  .00000605  00000-0  56089-4 0  9995,2 51114  53.2177  98.2301 0001787  74.7989 285.3201 15.08840088 90023,6917.88,95.438,540.981,538.509,0.0
51114.0,STARLINK-3375,PAYLOAD,2023-09-02 07:03:40,15.0883736,0.0001733,53.2177,96.4483,82.0631,278.0558,-0.00010251,-1.919e-05,0.0,0 STARLINK-3375,1 51114U 22005L   23245.29421948 -.00001919  00000-0 -10251-3 0  9990,2 51114  53.2177  96.4483 0001733  82.0631 278.0558 15.08837360 91193,6917.888,95.438,540.952,538.555,0.0
51114.0,STARLINK-3375,PAYLOAD,2023-09-02 19:46:45,15.08833602,0.0001303,53.2182,94.0647,76.8455,283.2682,9.7933e-05,1.271e-05,0.0,0 STARLINK-3375,1 51114U 22005L   23245.82413343  .00001271  00000-0  97933-4 0  9991,2 51114  53.2182  94.0647 0001303  76.8455 283.2682 15.08833602 90160,6917.9,95.438,540.666,538.864,0.0
51114.0,STARLINK-3375,PAYLOAD,2023-09-03 22:48:18,15.08842337,0.0001315,53.2175,89.0113,89.3785,270.7358,3.8714e-05,3.28e-06,0.0,0 STARLINK-3375,1 51114U 22005L   23246.95021315  .00000328  00000-0  38714-4 0  9994,2 51114  53.2175  89.0113 0001315  89.3785 270.7358 15.08842337 91440,6917.873,95.437,540.648,538.829,0.0
51114.0,STARLINK-3375,PAYLOAD,2023-09-04 06:45:14,15.08830125,0.0001513,53.218,87.5232,77.6268,282.4894,0.0001036,1.361e-05,0.0,0 STARLINK-3375,1 51114U 22005L   23247.28142054  .00001361  00000-0  10360-3 0  9999,2 51114  53.2180  87.5232 0001513  77.6268 282.4894 15.08830125 91499,6917.911,95.438,540.822,538.729,0.0
51114.0,STARLINK-3375,PAYLOAD,2023-09-04 13:06:47,15.08838715,0.0001506,53.2179,86.3352,82.4737,277.6426,-7.224e-05,-1.437e-05,0.0,0 STARLINK-3375,1 51114U 22005L   23247.54638101 -.00001437  00000-0 -72240-4 0  9993,2 51114  53.2179  86.3352 0001506  82.4737 277.6426 15.08838715 90426,6917.884,95.438,540.791,538.707,0.0
51114.0,STARLINK-3375,PAYLOAD,2023-09-05 12:57:33,15.08843602,0.0001358,53.2178,81.8756,84.5607,275.554,4.6919e-05,4.59e-06,0.0,0 STARLINK-3375,1 51114U 22005L   23248.53997575  .00000459  00000-0  46919-4 0  9991,2 51114  53.2178  81.8756 0001358  84.5607 275.5540 15.08843602 91681,6917.869,95.437,540.674,538.795,0.0
51114.0,STARLINK-3375,PAYLOAD,2023-09-06 06:26:48,15.08843712,0.0001431,53.2164,78.6041,88.3499,271.7657,2.6087e-05,1.27e-06,0.0,0 STARLINK-3375,1 51114U 22005L   23249.26861389  .00000127  00000-0  26087-4 0  9991,2 51114  53.2164  78.6041 0001431  88.3499 271.7657 15.08843712 90688,6917.869,95.437,540.724,538.744,0.0
51114.0,STARLINK-3375,PAYLOAD,2023-09-06 19:09:53,15.08840671,0.000157,53.2154,76.2244,87.1233,272.9939,7.9066e-05,9.71e-06,0.0,0 STARLINK-3375,1 51114U 22005L   23249.79853454  .00000971  00000-0  79066-4 0  9995,2 51114  53.2154  76.2244 0001570  87.1233 272.9939 15.08840671 90769,6917.878,95.438,540.829,538.657,0.0
51114.0,STARLINK-3375,PAYLOAD,2023-09-06 22:20:39,15.08841423,0.0001354,53.2174,75.63,82.2043,277.9103,2.9683e-05,1.85e-06,0.0,0 STARLINK-3375,1 51114U 22005L   23249.93101545  .00000185  00000-0  29683-4 0  9995,2 51114  53.2174  75.6300 0001354  82.2043 277.9103 15.08841423 91891,6917.876,95.437,540.678,538.804,0.0
51114.0,STARLINK-3375,PAYLOAD,2023-09-07 12:39:08,15.0884023,0.0001382,53.2169,72.955,81.9064,278.2084,-5.1556e-05,-1.108e-05,0.0,0 STARLINK-3375,1 51114U 22005L   23250.52717872 -.00001108  00000-0 -51556-4 0  9990,2 51114  53.2169  72.9550 0001382  81.9064 278.2084 15.08840230 90876,6917.88,95.438,540.701,538.789,0.0
51114.0,STARLINK-3375,PAYLOAD,2023-09-08 04:32:59,15.08839979,0.0001385,53.2168,69.9814,81.1396,278.9753,-9.0185e-06,-4.31e-06,0.0,0 STARLINK-3375,1 51114U 22005L   23251.18957731 -.00000431  00000-0 -90185-5 0  9993,2 51114  53.2168  69.9814 0001385  81.1396 278.9753 15.08839979 92080,6917.88,95.438,540.704,538.787,0.0
51114.0,STARLINK-3375,PAYLOAD,2023-09-08 20:26:50,15.08845761,0.0001289,53.2184,67.0088,92.0388,268.0752,-8.1606e-05,-1.587e-05,0.0,0 STARLINK-3375,1 51114U 22005L   23251.85197799 -.00001587  00000-0 -81606-4 0  9997,2 51114  53.2184  67.0088 0001289  92.0388 268.0752 15.08845761 91078,6917.863,95.437,540.619,538.836,0.0
51114.0,STARLINK-3375,PAYLOAD,2023-09-09 10:45:19,15.08832411,0.0001269,53.218,64.3312,90.1607,269.9531,3.0165e-05,1.92e-06,0.0,0 STARLINK-3375,1 51114U 22005L   23252.44814342  .00000192  00000-0  30165-4 0  9996,2 51114  53.2180  64.3312 0001269  90.1607 269.9531 15.08832411 92271,6917.904,95.438,540.646,538.891,0.0
51114.0,STARLINK-3375,PAYLOAD,2023-09-09 12:20:42,15.08853632,0.0001129,53.2179,64.0339,86.6623,273.4498,-0.00025866,-4.404e-05,0.0,0 STARLINK-3375,1 51114U 22005L   23252.51438240 -.00004404  00000-0 -25866-3 0  9996,2 51114  53.2179  64.0339 0001129  86.6623 273.4498 15.08853632 91176,6917.839,95.437,540.485,538.923,0.0
51114.0,STARLINK-3375,PAYLOAD,2023-09-10 10:36:06,15.08836205,0.0001156,53.2179,59.8706,84.0369,276.0755,8.6479e-05,1.089e-05,0.0,0 STARLINK-3375,1 51114U 22005L   23253.44174198  .00001089  00000-0  86479-4 0  9990,2 51114  53.2179  59.8706 0001156  84.0369 276.0755 15.08836205 91313,6917.892,95.438,540.557,538.957,0.0
51114.0,STARLINK-3375,PAYLOAD,2023-09-10 18:33:01,15.08843555,0.0001259,53.2185,58.3843,89.8204,270.2932,8.3831e-05,1.047e-05,0.0,0 STARLINK-3375,1 51114U 22005L   23253.77293847  .00001047  00000-0  83831-4 0  9992,2 51114  53.2185  58.3843 0001259  89.8204 270.2932 15.08843555 92478,6917.87,95.437,540.605,538.864,0.0
51114.0,STARLINK-3375,PAYLOAD,2023-09-11 12:02:16,15.08838659,0.0001371,53.2195,55.1131,83.7403,276.3745,1.5827e-05,-3.6e-07,0.0,0 STARLINK-3375,1 51114U 22005L   23254.50158481 -.00000036  00000-0  15827-4 0  9996,2 51114  53.2195  55.1131 0001371  83.7403 276.3745 15.08838659 91470,6917.884,95.438,540.698,538.801,0.0
51114.0,STARLINK-3375,PAYLOAD,2023-09-11 16:48:26,15.08841371,0.0001407,53.2198,54.2205,82.5881,277.5271,2.1241e-05,5e-07,0.0,0 STARLINK-3375,1 51114U 22005L   23254.70030300  .00000050  00000-0  21241-4 0  9999,2 51114  53.2198  54.2205 0001407  82.5881 277.5271 15.08841371 92611,6917.876,95.437,540.715,538.768,0.0
51114.0,STARLINK-3375,PAYLOAD,2023-09-12 10:17:40,15.08838878,0.0001329,53.2191,50.9505,85.9768,274.1376,1.6953e-05,-1.8e-07,0.0,0 STARLINK-3375,1 51114U 22005L   23255.42894417 -.00000018  00000-0  16953-4 0  9995,2 51114  53.2191  50.9505 0001329  85.9768 274.1376 15.08838878 91610,6917.884,95.438,540.668,538.829,0.0
51114.0,STARLINK-3375,PAYLOAD,2023-09-12 16:39:13,15.08841221,0.0001332,53.2186,49.7609,81.5061,278.6082,1.9032e-05,1.5e-07,0.0,0 STARLINK-3375,1 51114U 22005L   23255.69390303  .00000015  00000-0  19032-4 0  9996,2 51114  53.2186  49.7609 0001332  81.5061 278.6082 15.08841221 91650,6917.877,95.437,540.663,538.82,0.0
51114.0,STARLINK-3375,PAYLOAD,2023-09-13 03:46:54,15.08849695,0.0001187,53.2188,47.6792,95.3066,264.8061,5.5133e-05,5.9e-06,0.0,0 STARLINK-3375,1 51114U 22005L   23256.15757458  .00000590  00000-0  55133-4 0  9996,2 51114  53.2188  47.6792 0001187  95.3066 264.8061 15.08849695 92836,6917.851,95.437,540.537,538.895,0.0
51114.0,STARLINK-3375,PAYLOAD,2023-09-13 16:29:59,15.08850006,0.0001249,53.2185,45.3006,86.4254,273.6881,8.9816e-05,1.142e-05,0.0,0 STARLINK-3375,1 51114U 22005L   23256.68749234  .00001142  00000-0  89816-4 0  9996,2 51114  53.2185  45.3006 0001249  86.4254 273.6881 15.08850006 91807,6917.85,95.437,540.579,538.851,0.0
51114.0,STARLINK-3375,PAYLOAD,2023-09-14 09:59:15,15.08833154,0.0001362,53.2192,42.0288,103.5111,256.6033,-4.878e-06,-3.66e-06,0.0,0 STARLINK-3375,1 51114U 22005L   23257.41614679 -.00000366  00000-0 -48780-5 0  9997,2 51114  53.2192  42.0288 0001362 103.5111 256.6033 15.08833154 93021,6917.901,95.438,540.709,538.824,0.0
51114.0,STARLINK-3375,PAYLOAD,2023-09-14 13:10:01,15.08831305,0.0001262,53.2192,41.434,100.3272,259.7862,-1.1421e-05,-4.7e-06,0.0,0 STARLINK-3375,1 51114U 22005L   23257.54862940 -.00000470  00000-0 -11421-4 0  9994,2 51114  53.2192  41.4340 0001262 100.3272 259.7862 15.08831305 91933,6917.907,95.438,540.645,538.899,0.0
51114.0,STARLINK-3375,PAYLOAD,2023-09-14 16:20:48,15.08830377,0.0001238,53.2192,40.8392,97.4571,262.6561,-7.0889e-05,-1.416e-05,0.0,0 STARLINK-3375,1 51114U 22005L   23257.68111253 -.00001416  00000-0 -70889-4 0  9997,2 51114  53.2192  40.8392 0001238  97.4571 262.6561 15.08830377 91953,6917.91,95.438,540.631,538.918,0.0
51114.0,STARLINK-3375,PAYLOAD,2023-09-15 09:50:02,15.08839438,0.0001017,53.2191,37.5685,100.5084,259.6023,3.4016e-06,-2.34e-06,0.0,0 STARLINK-3375,1 51114U 22005L   23258.40974615 -.00000234  00000-0  34016-5 0  9996,2 51114  53.2191  37.5685 0001017 100.5084 259.6023 15.08839438 93172,6917.882,95.438,540.451,539.044,0.0
51114.0,STARLINK-3375,PAYLOAD,2023-09-15 13:00:48,15.08841703,0.0001365,53.2193,36.9752,95.842,264.2728,1.2838e-05,-8.4e-07,0.0,0 STARLINK-3375,1 51114U 22005L   23258.54222426 -.00000084  00000-0  12838-4 0  9997,2 51114  53.2193  36.9752 0001365  95.8420 264.2728 15.08841703 92089,6917.875,95.437,540.684,538.796,0.0
